[{"OBJECT_NAME":"STARLINK-31572","OBJECT_ID":"2024-057P","EPOCH":"2026-03-09T09:34:40.735776","MEAN_MOTION":15.275784,"ECCENTRICITY":3.329e-5,"INCLINATION":42.9963,"RA_OF_ASC_NODE":200.04,"ARG_OF_PERICENTER":181.9274,"MEAN_ANOMALY":178.1577,"EPHEMERIS_TYPE":0,"CLASSIFICATION_TYPE":"U","NORAD_CAT_ID":59333,"ELEMENT_SET_NO":999,"REV_AT_EPOCH":10966,"BSTAR":-6.05419e-5,"MEAN_MOTION_DOT":-1.927e-5,"MEAN_MOTION_DDOT":0},{"OBJECT_NAME":"OBJECT D","OBJECT_ID":"2024-173D","EPOCH":"2026-03-09T23:30:29.956896","MEAN_MOTION":15.27005733,"ECCENTRICITY":0.00090093,"INCLINATION":97.3606,"RA_OF_ASC_NODE":149.3901,"ARG_OF_PERICENTER":241.6081,"MEAN_ANOMALY":118.425,"EPHEMERIS_TYPE":0,"CLASSIFICATION_TYPE":"U","NORAD_CAT_ID":61230,"ELEMENT_SET_NO":999,"REV_AT_EPOCH":8130,"BSTAR":0.00072064626,"MEAN_MOTION_DOT":0.00019078,"MEAN_MOTION_DDOT":0}]
